{
  "type": "FeatureCollection",
  "features": [
    {
      "type": "Feature",
      "properties": {
        "norad_id": 33791,
        "name": "COSMOS 2251 DEB",
        "group": "cosmos-2251-debris",
        "lat": -70.93565373362351,
        "lon": -101.51266899830831,
        "alt_km": 738.4960659357776,
        "timestamp": "2025-12-20T11:30:28.768570+00:00",
        "meta_object_name": "COSMOS 2251 DEB",
        "meta_object_id": "1993-036AG",
        "meta_epoch": "2025-12-20T03:57:03.860064",
        "meta_mean_motion": 14.43159649,
        "meta_eccentricity": 0.0030265,
        "meta_inclination": 74.1746,
        "meta_ra_of_asc_node": 23.908,
        "meta_arg_of_pericenter": 219.7749,
        "meta_mean_anomaly": 204.0159,
        "meta_ephemeris_type": 0,
        "meta_classification_type": "U",
        "meta_norad_cat_id": 33791,
        "meta_element_set_no": 999,
        "meta_rev_at_epoch": 88159,
        "meta_bstar": 0.00055419,
        "meta_mean_motion_dot": 1.847e-05,
        "meta_mean_motion_ddot": 0,
        "tle_line1": "1 33791U 93036AG  25354.16462801  .00001847  00000+0  55419-3 0  9997",
        "tle_line2": "2 33791  74.1746  23.9080 0030265 219.7749 204.0159 14.43159649881599"
      },
      "geometry": {
        "type": "Point",
        "coordinates": [
          -101.51266899830831,
          -70.93565373362351
        ]
      }
    },
    {
      "type": "Feature",
      "properties": {
        "norad_id": 33792,
        "name": "COSMOS 2251 DEB",
        "group": "cosmos-2251-debris",
        "lat": 52.92332068089738,
        "lon": 130.51629248938687,
        "alt_km": 1055.2222055205684,
        "timestamp": "2025-12-20T11:30:28.768580+00:00",
        "meta_object_name": "COSMOS 2251 DEB",
        "meta_object_id": "1993-036AH",
        "meta_epoch": "2025-12-20T02:22:10.564032",
        "meta_mean_motion": 13.45835221,
        "meta_eccentricity": 0.04275,
        "meta_inclination": 73.9011,
        "meta_ra_of_asc_node": 333.5921,
        "meta_arg_of_pericenter": 36.891,
        "meta_mean_anomaly": 37.8828,
        "meta_ephemeris_type": 0,
        "meta_classification_type": "U",
        "meta_norad_cat_id": 33792,
        "meta_element_set_no": 999,
        "meta_rev_at_epoch": 82541,
        "meta_bstar": 0.00078978,
        "meta_mean_motion_dot": 7.99e-06,
        "meta_mean_motion_ddot": 0,
        "tle_line1": "1 33792U 93036AH  25354.09873338  .00000799  00000+0  78978-3 0  9991",
        "tle_line2": "2 33792  73.9011 333.5921 0427500  36.8910  37.8828 13.45835221825418"
      },
      "geometry": {
        "type": "Point",
        "coordinates": [
          130.51629248938687,
          52.92332068089738
        ]
      }
    },
    {
      "type": "Feature",
      "properties": {
        "norad_id": 33793,
        "name": "COSMOS 2251 DEB",
        "group": "cosmos-2251-debris",
        "lat": 67.933933822899,
        "lon": -179.01673447328835,
        "alt_km": 841.2780444715854,
        "timestamp": "2025-12-20T11:30:28.768591+00:00",
        "meta_object_name": "COSMOS 2251 DEB",
        "meta_object_id": "1993-036AJ",
        "meta_epoch": "2025-12-19T20:36:01.325952",
        "meta_mean_motion": 14.27744552,
        "meta_eccentricity": 0.00787538,
        "meta_inclination": 73.9804,
        "meta_ra_of_asc_node": 136.9795,
        "meta_arg_of_pericenter": 285.6798,
        "meta_mean_anomaly": 197.1544,
        "meta_ephemeris_type": 0,
        "meta_classification_type": "U",
        "meta_norad_cat_id": 33793,
        "meta_element_set_no": 999,
        "meta_rev_at_epoch": 87308,
        "meta_bstar": 0.00050526759,
        "meta_mean_motion_dot": 1.263e-05,
        "meta_mean_motion_ddot": 0,
        "tle_line1": "1 33793U 93036AJ  25353.85834868  .00001263  00000+0  50527-3 0  9997",
        "tle_line2": "2 33793  73.9804 136.9795 0078753 285.6798 197.1544 14.27744552873081"
      },
      "geometry": {
        "type": "Point",
        "coordinates": [
          -179.01673447328835,
          67.933933822899
        ]
      }
    },
    {
      "type": "Feature",
      "properties": {
        "norad_id": 33795,
        "name": "COSMOS 2251 DEB",
        "group": "cosmos-2251-debris",
        "lat": 27.649201545863477,
        "lon": 69.49211029829553,
        "alt_km": 555.8324878556905,
        "timestamp": "2025-12-20T11:30:28.768612+00:00",
        "meta_object_name": "COSMOS 2251 DEB",
        "meta_object_id": "1993-036AL",
        "meta_epoch": "2025-12-20T05:07:17.169888",
        "meta_mean_motion": 15.05750358,
        "meta_eccentricity": 0.0030544,
        "meta_inclination": 74.0325,
        "meta_ra_of_asc_node": 61.4106,
        "meta_arg_of_pericenter": 142.2668,
        "meta_mean_anomaly": 245.1489,
        "meta_ephemeris_type": 0,
        "meta_classification_type": "U",
        "meta_norad_cat_id": 33795,
        "meta_element_set_no": 999,
        "meta_rev_at_epoch": 90134,
        "meta_bstar": 0.00077359,
        "meta_mean_motion_dot": 0.00011296,
        "meta_mean_motion_ddot": 0,
        "tle_line1": "1 33795U 93036AL  25354.21339317  .00011296  00000+0  77359-3 0  9998",
        "tle_line2": "2 33795  74.0325  61.4106 0030544 142.2668 245.1489 15.05750358901342"
      },
      "geometry": {
        "type": "Point",
        "coordinates": [
          69.49211029829553,
          27.649201545863477
        ]
      }
    },
    {
      "type": "Feature",
      "properties": {
        "norad_id": 33797,
        "name": "COSMOS 2251 DEB",
        "group": "cosmos-2251-debris",
        "lat": -39.93486180438176,
        "lon": 6.394051504347963,
        "alt_km": 742.2565331205751,
        "timestamp": "2025-12-20T11:30:28.768635+00:00",
        "meta_object_name": "COSMOS 2251 DEB",
        "meta_object_id": "1993-036AN",
        "meta_epoch": "2025-12-20T03:45:07.126272",
        "meta_mean_motion": 14.57871469,
        "meta_eccentricity": 0.0060432,
        "meta_inclination": 74.0465,
        "meta_ra_of_asc_node": 20.8636,
        "meta_arg_of_pericenter": 106.4871,
        "meta_mean_anomaly": 316.6968,
        "meta_ephemeris_type": 0,
        "meta_classification_type": "U",
        "meta_norad_cat_id": 33797,
        "meta_element_set_no": 999,
        "meta_rev_at_epoch": 89093,
        "meta_bstar": 0.00024867,
        "meta_mean_motion_dot": 1.138e-05,
        "meta_mean_motion_ddot": 0,
        "tle_line1": "1 33797U 93036AN  25354.15633248  .00001138  00000+0  24867-3 0  9993",
        "tle_line2": "2 33797  74.0465  20.8636 0060432 106.4871 316.6968 14.57871469890934"
      },
      "geometry": {
        "type": "Point",
        "coordinates": [
          6.394051504347963,
          -39.93486180438176
        ]
      }
    },
    {
      "type": "Feature",
      "properties": {
        "norad_id": 33798,
        "name": "COSMOS 2251 DEB",
        "group": "cosmos-2251-debris",
        "lat": -8.221789518975553,
        "lon": -56.13901738367819,
        "alt_km": 706.6465481180358,
        "timestamp": "2025-12-20T11:30:28.768657+00:00",
        "meta_object_name": "COSMOS 2251 DEB",
        "meta_object_id": "1993-036AP",
        "meta_epoch": "2025-12-19T20:15:20.972736",
        "meta_mean_motion": 14.4462273,
        "meta_eccentricity": 0.00924024,
        "meta_inclination": 74.029,
        "meta_ra_of_asc_node": 122.6727,
        "meta_arg_of_pericenter": 242.4984,
        "meta_mean_anomaly": 243.0738,
        "meta_ephemeris_type": 0,
        "meta_classification_type": "U",
        "meta_norad_cat_id": 33798,
        "meta_element_set_no": 999,
        "meta_rev_at_epoch": 88696,
        "meta_bstar": 0.00012748564,
        "meta_mean_motion_dot": 4.35e-06,
        "meta_mean_motion_ddot": 0,
        "tle_line1": "1 33798U 93036AP  25353.84399274  .00000435  00000+0  12749-3 0  9992",
        "tle_line2": "2 33798  74.0290 122.6727 0092402 242.4984 243.0738 14.44622730886968"
      },
      "geometry": {
        "type": "Point",
        "coordinates": [
          -56.13901738367819,
          -8.221789518975553
        ]
      }
    },
    {
      "type": "Feature",
      "properties": {
        "norad_id": 33799,
        "name": "COSMOS 2251 DEB",
        "group": "cosmos-2251-debris",
        "lat": -30.521275371123558,
        "lon": 56.82907999826968,
        "alt_km": 651.4202460134766,
        "timestamp": "2025-12-20T11:30:28.768671+00:00",
        "meta_object_name": "COSMOS 2251 DEB",
        "meta_object_id": "1993-036AQ",
        "meta_epoch": "2025-12-19T14:52:34.207104",
        "meta_mean_motion": 14.79698147,
        "meta_eccentricity": 0.0022784,
        "meta_inclination": 74.0325,
        "meta_ra_of_asc_node": 68.2393,
        "meta_arg_of_pericenter": 136.5216,
        "meta_mean_anomaly": 294.3275,
        "meta_ephemeris_type": 0,
        "meta_classification_type": "U",
        "meta_norad_cat_id": 33799,
        "meta_element_set_no": 999,
        "meta_rev_at_epoch": 88913,
        "meta_bstar": 0.00074895,
        "meta_mean_motion_dot": 5.621e-05,
        "meta_mean_motion_ddot": 0,
        "tle_line1": "1 33799U 93036AQ  25353.61984036  .00005621  00000+0  74895-3 0  9996",
        "tle_line2": "2 33799  74.0325  68.2393 0022784 136.5216 294.3275 14.79698147889139"
      },
      "geometry": {
        "type": "Point",
        "coordinates": [
          56.82907999826968,
          -30.521275371123558
        ]
      }
    }
  ]
}